CZ-2C R/B               
1 52794U 22058K   25306.11590018  .00027578  00000+0  54196-3 0  9991
2 52794  50.1917 250.2836 0050211  29.1297 331.2455 15.45664055190348
GSLV R/B                
1 54149U 22138AN  25306.45335066  .00003073  00000+0  27221-3 0  9996
2 54149  87.3857 208.9543 0019010 252.5284 107.3870 14.95793014164902
XRISM                   
1 57800U 23137A   25306.51268992  .00006402  00000+0  38162-3 0  9998
2 57800  31.0029  25.1476 0008234 199.0815 160.9515 15.09705798118549
ACS3                    
1 59588U 24077B   25306.49080299  .00033998  00000+0  30811-1 0  9997
2 59588  97.3320 271.0099 0037900  32.1006 328.2451 13.83062066 76575
