CCSDS_OMM_VERS = 2.0
CREATION_DATE  = 
ORIGINATOR     = 

OBJECT_NAME    = CZ-2C R/B
OBJECT_ID      = 2022-058K
CENTER_NAME    = EARTH
REF_FRAME      = TEME
TIME_SYSTEM    = UTC
MEAN_ELEMENT_THEORY = SGP/SGP4

EPOCH          = 2025-11-02T02:46:53.775552
MEAN_MOTION    = 15.45664055
ECCENTRICITY   = .0050211
INCLINATION    = 50.1917
RA_OF_ASC_NODE = 250.2836
ARG_OF_PERICENTER = 29.1297
MEAN_ANOMALY   = 331.2455

EPHEMERIS_TYPE = 0
CLASSIFICATION_TYPE = U
NORAD_CAT_ID   = 52794
ELEMENT_SET_NO = 999
REV_AT_EPOCH   = 19034
BSTAR          = .54195833E-3
MEAN_MOTION_DOT = .27578E-3
MEAN_MOTION_DDOT = 0

CCSDS_OMM_VERS = 2.0
CREATION_DATE  = 
ORIGINATOR     = 

OBJECT_NAME    = GSLV R/B
OBJECT_ID      = 2022-138AN
CENTER_NAME    = EARTH
REF_FRAME      = TEME
TIME_SYSTEM    = UTC
MEAN_ELEMENT_THEORY = SGP/SGP4

EPOCH          = 2025-11-02T10:52:49.497024
MEAN_MOTION    = 14.95793014
ECCENTRICITY   = .001901
INCLINATION    = 87.3857
RA_OF_ASC_NODE = 208.9543
ARG_OF_PERICENTER = 252.5284
MEAN_ANOMALY   = 107.3870

EPHEMERIS_TYPE = 0
CLASSIFICATION_TYPE = U
NORAD_CAT_ID   = 54149
ELEMENT_SET_NO = 999
REV_AT_EPOCH   = 16490
BSTAR          = .27221E-3
MEAN_MOTION_DOT = .3073E-4
MEAN_MOTION_DDOT = 0

CCSDS_OMM_VERS = 2.0
CREATION_DATE  = 
ORIGINATOR     = 

OBJECT_NAME    = XRISM
OBJECT_ID      = 2023-137A
CENTER_NAME    = EARTH
REF_FRAME      = TEME
TIME_SYSTEM    = UTC
MEAN_ELEMENT_THEORY = SGP/SGP4

EPOCH          = 2025-11-02T12:18:16.409088
MEAN_MOTION    = 15.09705798
ECCENTRICITY   = .0008234
INCLINATION    = 31.0029
RA_OF_ASC_NODE = 25.1476
ARG_OF_PERICENTER = 199.0815
MEAN_ANOMALY   = 160.9515

EPHEMERIS_TYPE = 0
CLASSIFICATION_TYPE = U
NORAD_CAT_ID   = 57800
ELEMENT_SET_NO = 999
REV_AT_EPOCH   = 11854
BSTAR          = .38162E-3
MEAN_MOTION_DOT = .6402E-4
MEAN_MOTION_DDOT = 0

CCSDS_OMM_VERS = 2.0
CREATION_DATE  = 
ORIGINATOR     = 

OBJECT_NAME    = ACS3
OBJECT_ID      = 2024-077B
CENTER_NAME    = EARTH
REF_FRAME      = TEME
TIME_SYSTEM    = UTC
MEAN_ELEMENT_THEORY = SGP/SGP4

EPOCH          = 2025-11-02T11:46:45.378336
MEAN_MOTION    = 13.83062066
ECCENTRICITY   = .00379
INCLINATION    = 97.3320
RA_OF_ASC_NODE = 271.0099
ARG_OF_PERICENTER = 32.1006
MEAN_ANOMALY   = 328.2451

EPHEMERIS_TYPE = 0
CLASSIFICATION_TYPE = U
NORAD_CAT_ID   = 59588
ELEMENT_SET_NO = 999
REV_AT_EPOCH   = 7657
BSTAR          = .30811E-1
MEAN_MOTION_DOT = .33998E-3
MEAN_MOTION_DDOT = 0

